window._tle = "PEGASUS\n1 42784U 17036V   21243.12821684  .00003548  00000-0  14593-3 0  9991\n2 42784  97.2443 289.7943 0009525 276.3427  83.6726 15.24745890232734";
